stk.v.5.0 
BEGIN Ephemeris 
NumberOfEphemerisPoints 30
ScenarioEpoch 	11 Jan 2021 04:49:04
DistanceUnit 	 Kilometers 
CentralBody Earth
CoordinateSystem Inertial
EphemerisTimePosVel
1.39255032385000e+05 -5.99369433025773e+03 -1.43198582559109e+04 2.14953014180943e+04 3.71961152010589e+00 -1.05509858726564e+00 3.31292671988353e-01 
1.39315032385000e+05 -5.77104431044682e+03 -1.43824023162784e+04 2.15142898752846e+04 3.72713326182293e+00 -1.03674790394941e+00 3.03794650127492e-01 
1.39375032385000e+05 -5.54795541326174e+03 -1.44438460127583e+04 2.15316331227285e+04 3.73437006017699e+00 -1.01831785238713e+00 2.76273254671587e-01 
1.39435032385000e+05 -5.32444464524443e+03 -1.45041846808332e+04 2.15473298650815e+04 3.74132136095063e+00 -9.99809844140780e-01 2.48730593475578e-01 
1.39495032385000e+05 -5.10052904437826e+03 -1.45634137399029e+04 2.15613789318576e+04 3.74798663179180e+00 -9.81225296742066e-01 2.21168776022007e-01 
1.39555032385000e+05 -4.87622567880852e+03 -1.46215286936228e+04 2.15737792775092e+04 3.75436536225458e+00 -9.62565633583858e-01 1.93589913259557e-01 
1.39615032385000e+05 -4.65155164556008e+03 -1.46785251302360e+04 2.15845299814976e+04 3.76045706383824e+00 -9.43832283811185e-01 1.65996117441378e-01 
1.39675032385000e+05 -4.42652406925328e+03 -1.47343987228989e+04 2.15936302483548e+04 3.76626127002460e+00 -9.25026682211796e-01 1.38389501963343e-01 
1.39735032385000e+05 -4.20116010081781e+03 -1.47891452300012e+04 2.16010794077358e+04 3.77177753631373e+00 -9.06150269106265e-01 1.10772181202198e-01 
1.39795032385000e+05 -3.97547691620505e+03 -1.48427604954788e+04 2.16068769144615e+04 3.77700544025799e+00 -8.87204490237704e-01 8.31462703536618e-02 
1.39855032385000e+05 -3.74949171509866e+03 -1.48952404491205e+04 2.16110223485529e+04 3.78194458149431e+00 -8.68190796661054e-01 5.55138852704644e-02 
1.39915032385000e+05 -3.52322171962354e+03 -1.49465811068693e+04 2.16135154152558e+04 3.78659458177483e+00 -8.49110644631964e-01 2.78771423003240e-02 
1.39975032385000e+05 -3.29668417305319e+03 -1.49967785711160e+04 2.16143559450562e+04 3.79095508499586e+00 -8.29965495495263e-01 2.38158123881060e-04 
1.40035032385000e+05 -3.06989633851595e+03 -1.50458290309875e+04 2.16135438936872e+04 3.79502575722508e+00 -8.10756815573077e-01 -2.74009504073611e-02 
1.40095032385000e+05 -2.84287549769914e+03 -1.50937287626281e+04 2.16110793421254e+04 3.79880628672715e+00 -7.91486076052492e-01 -5.50380664331980e-02 
1.40155032385000e+05 -2.61563894955330e+03 -1.51404741294745e+04 2.16069624965797e+04 3.80229638398748e+00 -7.72154752872958e-01 -8.26710732467277e-02 
1.40215032385000e+05 -2.38820400899391e+03 -1.51860615825247e+04 2.16011936884697e+04 3.80549578173445e+00 -7.52764326613213e-01 -1.10297854456510e-01 
1.40275032385000e+05 -2.16058800560327e+03 -1.52304876606000e+04 2.15937733743955e+04 3.80840423495979e+00 -7.33316282377962e-01 -1.37916294148546e-01 
1.40335032385000e+05 -1.93280828232981e+03 -1.52737489906009e+04 2.15847021360980e+04 3.81102152093736e+00 -7.13812109684066e-01 -1.65524277048428e-01 
1.40395032385000e+05 -1.70488219418900e+03 -1.53158422877561e+04 2.15739806804107e+04 3.81334743924016e+00 -6.94253302346601e-01 -1.93119688683134e-01 
1.40455032385000e+05 -1.47682710696060e+03 -1.53567643558656e+04 2.15616098392011e+04 3.81538181175568e+00 -6.74641358364355e-01 -2.20700415543105e-01 
1.40515032385000e+05 -1.24866039588746e+03 -1.53965120875370e+04 2.15475905693044e+04 3.81712448269951e+00 -6.54977779805182e-01 -2.48264345243987e-01 
1.40575032385000e+05 -1.02039944437266e+03 -1.54350824644147e+04 2.15319239524470e+04 3.81857531862723e+00 -6.35264072690964e-01 -2.75809366688411e-01 
1.40635032385000e+05 -7.92061642676533e+02 -1.54724725574038e+04 2.15146111951612e+04 3.81973420844465e+00 -6.15501746882299e-01 -3.03333370227621e-01 
1.40695032385000e+05 -5.63664386613013e+02 -1.55086795268863e+04 2.14956536286908e+04 3.82060106341625e+00 -5.95692315962875e-01 -3.30834247823035e-01 
1.40755032385000e+05 -3.35225076245701e+02 -1.55437006229312e+04 2.14750527088874e+04 3.82117581717201e+00 -5.75837297123563e-01 -3.58309893207664e-01 
1.40815032385000e+05 -1.06761114583870e+02 -1.55775331854981e+04 2.14528100160981e+04 3.82145842571244e+00 -5.55938211046245e-01 -3.85758202047387e-01 
1.40875032385000e+05 1.21710093721660e+02 -1.56101746446342e+04 2.14289272550431e+04 3.82144886741197e+00 -5.35996581787381e-01 -4.13177072102067e-01 
1.40935032385000e+05 3.50171143682796e+02 -1.56416225206643e+04 2.14034062546853e+04 3.82114714302053e+00 -5.16013936661310e-01 -4.40564403386519e-01 
1.40995032385000e+05 5.78604631278845e+02 -1.56718744243747e+04 2.13762489680899e+04 3.82055327566356e+00 -4.95991806123257e-01 -4.67918098331367e-01 


END Ephemeris